IRIDIUM 33 DEB          
1 35853U 97051TD  17345.31511794  .00003681  00000-0  91169-3 0  9994
2 35853  86.3108 192.7754 0066267  51.6392 309.0741 14.50377386435145
